STARLINK-36881          
1 67962U 26038B   26077.58334491 -.02389927  00000+0 -24048-1 0  9998
2 67962  97.2858  88.3229 0001764  80.9857  19.1399 15.68552627  4630
STARLINK-36357          
1 67963U 26038C   26077.58334491 -.02373584  00000+0 -29546-1 0  9999
2 67963  97.2851  88.3137 0001692  81.6775 355.3381 15.63251853  4637
STARLINK-36349          
1 67964U 26038D   26077.58334491 -.02373748  00000+0 -29500-1 0  9992
2 67964  97.2851  88.3105 0001606  77.1429 352.2602 15.63294319  4630
STARLINK-36806          
1 67965U 26038E   26077.58334491 -.02342888  00000+0 -23198-1 0  9991
2 67965  97.2859  88.3316 0001918  82.7269  39.4237 15.69462637  4637
STARLINK-36820          
1 67966U 26038F   26077.58334491 -.02340588  00000+0 -22814-1 0  9991
2 67966  97.2855  88.3348 0001897  83.9306  45.7081 15.69835559  4634
STARLINK-36819          
1 67967U 26038G   26077.58334491  .00027922  00000+0  51373-3 0  9996
2 67967  97.2844  88.2413 0001317  81.7877 182.1026 15.49161843  4632
STARLINK-36812          
1 67968U 26038H   26077.58334491 -.02339565  00000+0 -22429-1 0  9998
2 67968  97.2857  88.3395 0002010  82.1523  60.9517 15.70227474  4636
STARLINK-36709          
1 67969U 26038J   26077.58334491 -.02344591  00000+0 -22703-1 0  9999
2 67969  97.2854  88.3452 0002048  82.2116  74.0386 15.69997625  4638
STARLINK-36319          
1 67970U 26038K   26077.58334491 -.02382068  00000+0 -28081-1 0  9997
2 67970  97.2850  88.3313 0002017  84.2296  35.8435 15.64632869  4607
STARLINK-36710          
1 67971U 26038L   26077.58334491 -.02343656  00000+0 -21815-1 0  9996
2 67971  97.2855  88.3506 0001979  81.2625  88.1775 15.70936162  4637
STARLINK-36894          
1 67972U 26038M   26077.58334491 -.02339766  00000+0 -21433-1 0  9990
2 67972  97.2855  88.3521 0001879  92.7948  83.7360 15.71309064  4636
STARLINK-36900          
1 67973U 26038N   26077.58334491 -.02137245  00000+0 -37631-1 0  9996
2 67973  97.2844  88.3012 0001679 156.9821 237.0614 15.53744627  4635
STARLINK-36901          
1 67974U 26038P   26077.58334491 -.02343961  00000+0 -21392-1 0  9998
2 67974  97.2851  88.3555 0002017  84.9436  97.8472 15.71402217  4635
STARLINK-36883          
1 67975U 26038Q   26077.58334491 -.02384750  00000+0 -24886-1 0  9991
2 67975  97.2851  88.3630 0001968  88.0367 115.5770 15.67656284  4631
STARLINK-36880          
1 67976U 26038R   26077.58334491 -.00785259  00000+0 -15419-1 0  9991
2 67976  97.2843  88.2751 0002459  95.5039 245.8460 15.49694460  4632
STARLINK-36904          
1 67977U 26038S   26077.58334491 -.02376681  00000+0 -24965-1 0  9995
2 67977  97.2850  88.3596 0001922  86.7885 107.9305 15.67484576  4635
