[{"OBJECT_NAME":"STARLINK-36881","OBJECT_ID":"2026-038B","EPOCH":"2026-03-18T14:00:01.000224","MEAN_MOTION":15.68552627,"ECCENTRICITY":0.00017644,"INCLINATION":97.2858,"RA_OF_ASC_NODE":88.3229,"ARG_OF_PERICENTER":80.9857,"MEAN_ANOMALY":19.1399,"EPHEMERIS_TYPE":0,"CLASSIFICATION_TYPE":"U","NORAD_CAT_ID":67962,"ELEMENT_SET_NO":999,"REV_AT_EPOCH":463,"BSTAR":-0.024047726,"MEAN_MOTION_DOT":-0.02389927,"MEAN_MOTION_DDOT":0},{"OBJECT_NAME":"STARLINK-36357","OBJECT_ID":"2026-038C","EPOCH":"2026-03-18T14:00:01.000224","MEAN_MOTION":15.63251853,"ECCENTRICITY":0.00016925,"INCLINATION":97.2851,"RA_OF_ASC_NODE":88.3137,"ARG_OF_PERICENTER":81.6775,"MEAN_ANOMALY":355.3381,"EPHEMERIS_TYPE":0,"CLASSIFICATION_TYPE":"U","NORAD_CAT_ID":67963,"ELEMENT_SET_NO":999,"REV_AT_EPOCH":463,"BSTAR":-0.029546058,"MEAN_MOTION_DOT":-0.02373584,"MEAN_MOTION_DDOT":0},{"OBJECT_NAME":"STARLINK-36349","OBJECT_ID":"2026-038D","EPOCH":"2026-03-18T14:00:01.000224","MEAN_MOTION":15.63294319,"ECCENTRICITY":0.00016062,"INCLINATION":97.2851,"RA_OF_ASC_NODE":88.3105,"ARG_OF_PERICENTER":77.1429,"MEAN_ANOMALY":352.2602,"EPHEMERIS_TYPE":0,"CLASSIFICATION_TYPE":"U","NORAD_CAT_ID":67964,"ELEMENT_SET_NO":999,"REV_AT_EPOCH":463,"BSTAR":-0.029500092,"MEAN_MOTION_DOT":-0.02373748,"MEAN_MOTION_DDOT":0},{"OBJECT_NAME":"STARLINK-36806","OBJECT_ID":"2026-038E","EPOCH":"2026-03-18T14:00:01.000224","MEAN_MOTION":15.69462637,"ECCENTRICITY":0.00019188,"INCLINATION":97.2859,"RA_OF_ASC_NODE":88.3316,"ARG_OF_PERICENTER":82.7269,"MEAN_ANOMALY":39.4237,"EPHEMERIS_TYPE":0,"CLASSIFICATION_TYPE":"U","NORAD_CAT_ID":67965,"ELEMENT_SET_NO":999,"REV_AT_EPOCH":463,"BSTAR":-0.023197748,"MEAN_MOTION_DOT":-0.02342888,"MEAN_MOTION_DDOT":0},{"OBJECT_NAME":"STARLINK-36820","OBJECT_ID":"2026-038F","EPOCH":"2026-03-18T14:00:01.000224","MEAN_MOTION":15.69835559,"ECCENTRICITY":0.00018975,"INCLINATION":97.2855,"RA_OF_ASC_NODE":88.3348,"ARG_OF_PERICENTER":83.9306,"MEAN_ANOMALY":45.7081,"EPHEMERIS_TYPE":0,"CLASSIFICATION_TYPE":"U","NORAD_CAT_ID":67966,"ELEMENT_SET_NO":999,"REV_AT_EPOCH":463,"BSTAR":-0.022813516,"MEAN_MOTION_DOT":-0.02340588,"MEAN_MOTION_DDOT":0},{"OBJECT_NAME":"STARLINK-36819","OBJECT_ID":"2026-038G","EPOCH":"2026-03-18T14:00:01.000224","MEAN_MOTION":15.49161843,"ECCENTRICITY":0.00013173,"INCLINATION":97.2844,"RA_OF_ASC_NODE":88.2413,"ARG_OF_PERICENTER":81.7877,"MEAN_ANOMALY":182.1026,"EPHEMERIS_TYPE":0,"CLASSIFICATION_TYPE":"U","NORAD_CAT_ID":67967,"ELEMENT_SET_NO":999,"REV_AT_EPOCH":463,"BSTAR":0.00051373116,"MEAN_MOTION_DOT":0.00027922,"MEAN_MOTION_DDOT":0},{"OBJECT_NAME":"STARLINK-36812","OBJECT_ID":"2026-038H","EPOCH":"2026-03-18T14:00:01.000224","MEAN_MOTION":15.70227474,"ECCENTRICITY":0.00020106,"INCLINATION":97.2857,"RA_OF_ASC_NODE":88.3395,"ARG_OF_PERICENTER":82.1523,"MEAN_ANOMALY":60.9517,"EPHEMERIS_TYPE":0,"CLASSIFICATION_TYPE":"U","NORAD_CAT_ID":67968,"ELEMENT_SET_NO":999,"REV_AT_EPOCH":463,"BSTAR":-0.022429135,"MEAN_MOTION_DOT":-0.02339565,"MEAN_MOTION_DDOT":0},{"OBJECT_NAME":"STARLINK-36709","OBJECT_ID":"2026-038J","EPOCH":"2026-03-18T14:00:01.000224","MEAN_MOTION":15.69997625,"ECCENTRICITY":0.00020482,"INCLINATION":97.2854,"RA_OF_ASC_NODE":88.3452,"ARG_OF_PERICENTER":82.2116,"MEAN_ANOMALY":74.0386,"EPHEMERIS_TYPE":0,"CLASSIFICATION_TYPE":"U","NORAD_CAT_ID":67969,"ELEMENT_SET_NO":999,"REV_AT_EPOCH":463,"BSTAR":-0.022702603,"MEAN_MOTION_DOT":-0.02344591,"MEAN_MOTION_DDOT":0},{"OBJECT_NAME":"STARLINK-36319","OBJECT_ID":"2026-038K","EPOCH":"2026-03-18T14:00:01.000224","MEAN_MOTION":15.64632869,"ECCENTRICITY":0.00020172,"INCLINATION":97.285,"RA_OF_ASC_NODE":88.3313,"ARG_OF_PERICENTER":84.2296,"MEAN_ANOMALY":35.8435,"EPHEMERIS_TYPE":0,"CLASSIFICATION_TYPE":"U","NORAD_CAT_ID":67970,"ELEMENT_SET_NO":999,"REV_AT_EPOCH":460,"BSTAR":-0.028081447,"MEAN_MOTION_DOT":-0.02382068,"MEAN_MOTION_DDOT":0},{"OBJECT_NAME":"STARLINK-36710","OBJECT_ID":"2026-038L","EPOCH":"2026-03-18T14:00:01.000224","MEAN_MOTION":15.70936162,"ECCENTRICITY":0.00019793,"INCLINATION":97.2855,"RA_OF_ASC_NODE":88.3506,"ARG_OF_PERICENTER":81.2625,"MEAN_ANOMALY":88.1775,"EPHEMERIS_TYPE":0,"CLASSIFICATION_TYPE":"U","NORAD_CAT_ID":67971,"ELEMENT_SET_NO":999,"REV_AT_EPOCH":463,"BSTAR":-0.021814873,"MEAN_MOTION_DOT":-0.02343656,"MEAN_MOTION_DDOT":0},{"OBJECT_NAME":"STARLINK-36894","OBJECT_ID":"2026-038M","EPOCH":"2026-03-18T14:00:01.000224","MEAN_MOTION":15.71309064,"ECCENTRICITY":0.00018797,"INCLINATION":97.2855,"RA_OF_ASC_NODE":88.3521,"ARG_OF_PERICENTER":92.7948,"MEAN_ANOMALY":83.736,"EPHEMERIS_TYPE":0,"CLASSIFICATION_TYPE":"U","NORAD_CAT_ID":67972,"ELEMENT_SET_NO":999,"REV_AT_EPOCH":463,"BSTAR":-0.021433224,"MEAN_MOTION_DOT":-0.02339766,"MEAN_MOTION_DDOT":0},{"OBJECT_NAME":"STARLINK-36900","OBJECT_ID":"2026-038N","EPOCH":"2026-03-18T14:00:01.000224","MEAN_MOTION":15.53744627,"ECCENTRICITY":0.00016796,"INCLINATION":97.2844,"RA_OF_ASC_NODE":88.3012,"ARG_OF_PERICENTER":156.9821,"MEAN_ANOMALY":237.0614,"EPHEMERIS_TYPE":0,"CLASSIFICATION_TYPE":"U","NORAD_CAT_ID":67973,"ELEMENT_SET_NO":999,"REV_AT_EPOCH":463,"BSTAR":-0.037630718,"MEAN_MOTION_DOT":-0.02137245,"MEAN_MOTION_DDOT":0},{"OBJECT_NAME":"STARLINK-36901","OBJECT_ID":"2026-038P","EPOCH":"2026-03-18T14:00:01.000224","MEAN_MOTION":15.71402217,"ECCENTRICITY":0.00020172,"INCLINATION":97.2851,"RA_OF_ASC_NODE":88.3555,"ARG_OF_PERICENTER":84.9436,"MEAN_ANOMALY":97.8472,"EPHEMERIS_TYPE":0,"CLASSIFICATION_TYPE":"U","NORAD_CAT_ID":67974,"ELEMENT_SET_NO":999,"REV_AT_EPOCH":463,"BSTAR":-0.0213917,"MEAN_MOTION_DOT":-0.02343961,"MEAN_MOTION_DDOT":0},{"OBJECT_NAME":"STARLINK-36883","OBJECT_ID":"2026-038Q","EPOCH":"2026-03-18T14:00:01.000224","MEAN_MOTION":15.67656284,"ECCENTRICITY":0.00019687,"INCLINATION":97.2851,"RA_OF_ASC_NODE":88.363,"ARG_OF_PERICENTER":88.0367,"MEAN_ANOMALY":115.577,"EPHEMERIS_TYPE":0,"CLASSIFICATION_TYPE":"U","NORAD_CAT_ID":67975,"ELEMENT_SET_NO":999,"REV_AT_EPOCH":463,"BSTAR":-0.024885677,"MEAN_MOTION_DOT":-0.0238475,"MEAN_MOTION_DDOT":0},{"OBJECT_NAME":"STARLINK-36880","OBJECT_ID":"2026-038R","EPOCH":"2026-03-18T14:00:01.000224","MEAN_MOTION":15.4969446,"ECCENTRICITY":0.00024597,"INCLINATION":97.2843,"RA_OF_ASC_NODE":88.2751,"ARG_OF_PERICENTER":95.5039,"MEAN_ANOMALY":245.846,"EPHEMERIS_TYPE":0,"CLASSIFICATION_TYPE":"U","NORAD_CAT_ID":67976,"ELEMENT_SET_NO":999,"REV_AT_EPOCH":463,"BSTAR":-0.015418764,"MEAN_MOTION_DOT":-0.00785259,"MEAN_MOTION_DDOT":0},{"OBJECT_NAME":"STARLINK-36904","OBJECT_ID":"2026-038S","EPOCH":"2026-03-18T14:00:01.000224","MEAN_MOTION":15.67484576,"ECCENTRICITY":0.00019223,"INCLINATION":97.285,"RA_OF_ASC_NODE":88.3596,"ARG_OF_PERICENTER":86.7885,"MEAN_ANOMALY":107.9305,"EPHEMERIS_TYPE":0,"CLASSIFICATION_TYPE":"U","NORAD_CAT_ID":67977,"ELEMENT_SET_NO":999,"REV_AT_EPOCH":463,"BSTAR":-0.024965169,"MEAN_MOTION_DOT":-0.02376681,"MEAN_MOTION_DDOT":0}]
